OBJECT_NAME,OBJECT_ID,EPOCH,MEAN_MOTION,ECCENTRICITY,INCLINATION,RA_OF_ASC_NODE,ARG_OF_PERICENTER,MEAN_ANOMALY,EPHEMERIS_TYPE,CLASSIFICATION_TYPE,NORAD_CAT_ID,ELEMENT_SET_NO,REV_AT_EPOCH,BSTAR,MEAN_MOTION_DOT,MEAN_MOTION_DDOT
GSAT-29,2018-089A,2026-07-05T14:06:09.088416,1.00273198,.00033967,0.0649,257.8995,181.8945,110.3602,0,U,43698,999,2797,0,.99E-6,0
ES'HAIL 2,2018-090A,2026-07-05T13:57:47.390400,1.00274128,.0002304,0.0159,65.5704,78.7208,14.5406,0,U,43700,999,2786,0,.158E-5,0
GSAT-11,2018-100B,2026-07-05T14:11:34.716192,1.00271460,.0007979,0.0722,264.7382,190.4376,115.3217,0,U,43824,999,2766,0,-.63E-6,0
GSAT-7A,2018-105A,2026-07-05T12:25:41.465856,1.00269418,.0001938,0.0600,93.7208,5.0839,73.9245,0,U,43864,999,2763,0,.4E-6,0
TJS-3,2018-110A,2026-07-02T18:29:27.521088,1.00275771,.0002326,2.5826,80.3162,74.4390,191.5459,0,U,43874,999,2757,0,-.207E-5,0
ZHONGXING-2D,2019-001A,2026-07-05T12:44:48.703200,1.00269043,.0000924,0.0354,114.7886,238.8892,251.0592,0,U,43920,999,5426,0,-.324E-5,0
HELLAS-SAT 4 & SGS-1,2019-007A,2026-07-05T12:18:57.112992,1.00273207,.000558,0.0679,131.2508,6.7550,9.2612,0,U,44034,999,2755,0,.166E-5,0
GSAT-31,2019-007B,2026-07-05T14:04:09.280128,1.00274140,.00002378,0.0411,215.2592,157.4061,169.8330,0,U,44035,999,2715,0,.139E-5,0
NUSANTARA SATU,2019-009A,2026-07-04T21:25:31.318176,1.00270459,.0004806,0.0341,124.1256,357.9867,268.1725,0,U,44048,999,2694,0,-.222E-5,0
WGS 10 (USA 291),2019-014A,2026-07-05T08:59:31.170048,1.00271796,.0000089,0.0195,41.1199,72.5450,4.8890,0,U,44071,999,2680,0,.6E-6,0
TIANLIAN 2-01,2019-017A,2026-07-05T14:12:27.131616,1.00271741,.00013824,0.5844,83.1125,62.1527,68.4603,0,U,44076,999,2683,0,-.93E-6,0
ARABSAT-6A,2019-021A,2026-07-05T13:59:09.758976,1.00279348,.00007612,0.0484,17.5918,308.9798,197.3150,0,U,44186,999,2634,0,.167E-5,0
BEIDOU-3 IGSO-1,2019-023A,2026-07-02T20:40:39.940032,1.00287534,.00256419,58.7163,37.4891,224.0382,88.2901,0,U,44204,999,736,0,-.197E-5,0
BEIDOU-2 G8,2019-027A,2026-07-05T15:18:51.694848,1.00275677,.00100633,1.7022,74.5151,285.6478,297.6492,0,U,44231,999,2626,0,-.234E-5,0
AT&T T-16,2019-034A,2026-07-05T04:48:27.062208,1.00270256,.000044,0.0143,57.8212,271.1422,285.4985,0,U,44333,999,2581,0,-.102E-5,0
EUTELSAT 7C,2019-034B,2026-07-05T05:19:10.876224,1.00273376,.0003499,0.0756,181.8076,270.7186,277.5108,0,U,44334,999,701,0,.62E-6,0
BEIDOU-3 IGSO-2,2019-035A,2026-07-05T14:24:58.719168,1.00261027,.00397108,55.2499,158.7009,216.4936,243.6671,0,U,44337,999,2585,0,-.82E-6,0
EDRS-C,2019-049A,2026-07-05T14:18:39.539808,1.00269897,.00011202,0.0143,108.7144,0.0628,171.9953,0,U,44475,999,2539,0,-.249E-5,0
INTELSAT 39 (IS-39),2019-049B,2026-07-05T14:25:21.005184,1.00269435,.00007245,0.0201,28.5981,299.5808,233.7048,0,U,44476,999,2531,0,0,0
AMOS-17,2019-050A,2026-07-05T13:55:17.629824,1.00270380,.00015663,0.0283,315.6234,148.1229,45.6369,0,U,44479,999,2537,0,.123E-5,0
AEHF-5 (USA 292),2019-051A,2026-07-05T10:51:36.349920,1.00268205,.0065508,1.4384,337.5507,358.9612,202.8756,0,U,44481,999,2544,0,-.243E-5,0
EUTELSAT 5 WEST B,2019-067A,2026-07-05T13:49:03.228384,1.00271435,.00032711,0.0672,336.1816,129.0077,20.6424,0,U,44624,999,2462,0,-.29E-6,0
MEV-1,2019-067B,2026-06-16T22:18:40.152960,1.00269616,.00027946,0.8740,268.9828,179.8034,307.2103,0,U,44625,999,6174,0,-.149E-5,0
TJS-4,2019-070A,2026-07-05T16:08:41.051904,1.00271287,.00037062,0.0594,87.1531,321.0313,201.2081,0,U,44637,999,2472,0,-.156E-5,0
TIBA-1,2019-080A,2026-07-05T14:00:32.126688,1.00274201,.00022508,0.0515,347.7421,136.8681,44.6033,0,U,44800,999,2424,0,.169E-5,0
INMARSAT GX5,2019-080B,2026-07-05T13:53:32.797248,1.00270945,.00022825,0.0347,11.6312,86.8295,44.5176,0,U,44801,999,697,0,.88E-6,0
JCSAT-18 (KACIFIC 1),2019-091A,2026-07-04T21:26:38.711040,1.00259264,.0000417,0.0405,217.3210,35.7801,141.4573,0,U,44868,999,2418,0,-.19E-5,0
