GSAT-29                 
1 43698U 18089A   26186.58760519  .00000099  00000+0  00000+0 0  9996
2 43698   0.0649 257.8995 0003396 181.8945 110.3602  1.00273198 27972
ES'HAIL 2               
1 43700U 18090A   26186.58179850  .00000158  00000+0  00000+0 0  9990
2 43700   0.0159  65.5704 0002304  78.7208  14.5406  1.00274128 27867
GSAT-11                 
1 43824U 18100B   26186.59137403 -.00000063  00000+0  00000+0 0  9994
2 43824   0.0722 264.7382 0007979 190.4376 115.3217  1.00271460 27660
GSAT-7A                 
1 43864U 18105A   26186.51784105  .00000040  00000+0  00000+0 0  9996
2 43864   0.0600  93.7208 0001938   5.0839  73.9245  1.00269418 27637
TJS-3                   
1 43874U 18110A   26183.77045742 -.00000207  00000+0  00000+0 0  9991
2 43874   2.5826  80.3162 0002326  74.4390 191.5459  1.00275771 27576
ZHONGXING-2D            
1 43920U 19001A   26186.53111925 -.00000324  00000+0  00000+0 0  9997
2 43920   0.0354 114.7886 0000923 238.8892 251.0592  1.00269043 54267
HELLAS-SAT 4 & SGS-1    
1 44034U 19007A   26186.51316104  .00000166  00000+0  00000+0 0  9997
2 44034   0.0679 131.2508 0005579   6.7550   9.2612  1.00273207 27559
GSAT-31                 
1 44035U 19007B   26186.58621852  .00000139  00000+0  00000+0 0  9994
2 44035   0.0411 215.2592 0000237 157.4061 169.8330  1.00274140 27150
NUSANTARA SATU          
1 44048U 19009A   26185.89272359 -.00000222  00000+0  00000+0 0  9991
2 44048   0.0341 124.1256 0004805 357.9867 268.1725  1.00270459 26943
WGS 10 (USA 291)        
1 44071U 19014A   26186.37466632  .00000060  00000+0  00000+0 0  9995
2 44071   0.0195  41.1199 0000088  72.5450   4.8890  1.00271796 26805
TIANLIAN 2-01           
1 44076U 19017A   26186.59198069 -.00000093  00000+0  00000+0 0  9990
2 44076   0.5844  83.1125 0001382  62.1527  68.4603  1.00271741 26830
ARABSAT-6A              
1 44186U 19021A   26186.58275184  .00000167  00000+0  00000+0 0  9991
2 44186   0.0484  17.5918 0000761 308.9798 197.3150  1.00279348 26345
BEIDOU-3 IGSO-1         
1 44204U 19023A   26183.86157338 -.00000197  00000+0  00000+0 0  9996
2 44204  58.7163  37.4891 0025641 224.0382  88.2901  1.00287534  7361
BEIDOU-2 G8             
1 44231U 19027A   26186.63809832 -.00000234  00000+0  00000+0 0  9993
2 44231   1.7022  74.5151 0010063 285.6478 297.6492  1.00275677 26261
AT&T T-16               
1 44333U 19034A   26186.20031322 -.00000102  00000+0  00000+0 0  9992
2 44333   0.0143  57.8212 0000440 271.1422 285.4985  1.00270256 25819
EUTELSAT 7C             
1 44334U 19034B   26186.22165366  .00000062  00000+0  00000+0 0  9995
2 44334   0.0756 181.8076 0003499 270.7186 277.5108  1.00273376  7012
BEIDOU-3 IGSO-2         
1 44337U 19035A   26186.60067962 -.00000082  00000+0  00000+0 0  9997
2 44337  55.2499 158.7009 0039710 216.4936 243.6671  1.00261027 25856
EDRS-C                  
1 44475U 19049A   26186.59629097 -.00000249  00000+0  00000+0 0  9991
2 44475   0.0143 108.7144 0001120   0.0628 171.9953  1.00269897 25395
INTELSAT 39 (IS-39)     
1 44476U 19049B   26186.60093756  .00000000  00000+0  00000+0 0  9995
2 44476   0.0201  28.5981 0000724 299.5808 233.7048  1.00269435 25315
AMOS-17                 
1 44479U 19050A   26186.58006516  .00000123  00000+0  00000+0 0  9991
2 44479   0.0283 315.6234 0001566 148.1229  45.6369  1.00270380 25373
AEHF-5 (USA 292)        
1 44481U 19051A   26186.45250406 -.00000243  00000+0  00000+0 0  9994
2 44481   1.4384 337.5507 0065508 358.9612 202.8756  1.00268205 25440
EUTELSAT 5 WEST B       
1 44624U 19067A   26186.57573181 -.00000029  00000+0  00000+0 0  9993
2 44624   0.0672 336.1816 0003271 129.0077  20.6424  1.00271435 24629
MEV-1                   
1 44625U 19067B   26167.92963140 -.00000149  00000+0  00000+0 0  9993
2 44625   0.8740 268.9828 0002794 179.8034 307.2103  1.00269616 61744
TJS-4                   
1 44637U 19070A   26186.67269736 -.00000156  00000+0  00000+0 0  9991
2 44637   0.0594  87.1531 0003706 321.0313 201.2081  1.00271287 24725
TIBA-1                  
1 44800U 19080A   26186.58370517  .00000169  00000+0  00000+0 0  9997
2 44800   0.0515 347.7421 0002250 136.8681  44.6033  1.00274201 24248
INMARSAT GX5            
1 44801U 19080B   26186.57885182  .00000088  00000+0  00000+0 0  9996
2 44801   0.0347  11.6312 0002282  86.8295  44.5176  1.00270945  6976
JCSAT-18 (KACIFIC 1)    
1 44868U 19091A   26185.89350360 -.00000190  00000+0  00000+0 0  9995
2 44868   0.0405 217.3210 0000417  35.7801 141.4573  1.00259264 24182
